OBJECT_NAME,OBJECT_ID,EPOCH,MEAN_MOTION,ECCENTRICITY,INCLINATION,RA_OF_ASC_NODE,ARG_OF_PERICENTER,MEAN_ANOMALY,EPHEMERIS_TYPE,CLASSIFICATION_TYPE,NORAD_CAT_ID,ELEMENT_SET_NO,REV_AT_EPOCH,BSTAR,MEAN_MOTION_DOT,MEAN_MOTION_DDOT
BEIDOU-2 IGSO-5 (C10),2011-073A,2026-07-02T17:30:18.330912,1.00270596,.01145273,47.6496,271.3544,222.0502,141.5350,0,U,37948,999,5329,0,-.128E-5,0
LUCH 5A (SDCM/PRN 140),2011-074B,2026-07-19T10:52:38.742816,1.00274030,.00027733,8.8339,73.3316,60.4689,133.6161,0,U,37951,999,5337,0,-.58E-6,0
BEIDOU-2 G5 (C05),2012-008A,2026-07-19T03:44:38.938272,1.00271510,.00072978,3.6519,69.4978,269.3147,72.9475,0,U,38091,999,5268,0,.5E-6,0
BEIDOU-2 M3 (C11),2012-018A,2026-07-17T19:05:16.894752,1.86229645,.00210447,55.7296,303.8435,272.1726,87.6188,0,U,38250,999,9651,0,-.87E-6,0
BEIDOU-2 M4 (C12),2012-018B,2026-07-18T06:21:05.165568,1.86229286,.00121764,55.6290,303.0389,272.1376,87.7565,0,U,38251,999,9652,0,-.89E-6,0
SES-5 (EGNOS/PRN 136),2012-036A,2026-07-19T13:11:54.314016,1.00276813,.00017905,0.0450,318.5993,165.8690,15.8169,0,U,38652,999,4478,0,.3E-6,0
BEIDOU-2 M6 (C14),2012-050B,2026-07-17T23:22:51.951360,1.86230950,.00128115,56.5713,61.8766,1.9822,358.0915,0,U,38775,999,9388,0,-.62E-6,0
GSAT-10 (GAGAN/PRN 128),2012-051B,2026-07-19T14:46:26.373792,1.00272769,.00075519,0.0791,264.1497,191.1980,146.6678,0,U,38779,999,5042,0,-.169E-5,0
GPS BIIF-3  (PRN 24),2012-053A,2026-07-18T17:25:13.697472,2.00568018,.01822543,53.5900,142.3072,66.2846,295.5909,0,U,38833,999,10007,0,.25E-6,0
GSAT0103 (GALILEO-FM3),2012-055A,2026-07-19T03:38:04.424640,1.70473478,.0003622,55.8248,100.6680,312.6356,47.3724,0,U,38857,999,8555,0,-.35E-6,0
BEIDOU-2 G6 (C02),2012-059A,2026-07-19T13:34:39.455616,1.00273181,.00088768,4.5018,73.1739,327.6755,184.1795,0,U,38953,999,5023,0,-.182E-5,0
LUCH 5B (SDCM/PRN 125),2012-061A,2026-07-19T07:58:02.124192,1.00270298,.00038063,10.5518,49.5606,146.8314,203.9406,0,U,38977,999,4992,0,-.147E-5,0
COSMOS 2485 (747),2013-019A,2026-07-17T09:53:07.452384,2.13103096,.00225849,65.4363,72.5906,230.9016,128.9717,0,U,39155,999,10292,0,-.24E-6,0
GPS BIIF-4  (PRN 27),2013-023A,2026-07-19T02:12:49.706208,2.00563376,.01413881,54.4799,267.6724,51.1107,310.2117,0,U,39166,999,9652,0,-.38E-6,0
IRNSS-1A,2013-034A,2026-07-10T17:17:25.712736,1.00281941,.0017567,35.7704,63.5328,183.4462,356.2994,0,U,39199,999,4760,0,.47E-6,0
GPS BIIF-5  (PRN 30),2014-008A,2026-07-18T02:19:34.999968,2.00561763,.00840629,53.6580,148.0590,231.5632,127.6506,0,U,39533,999,9030,0,.29E-6,0
ASTRA 5B (EGNOS/PRN 123),2014-011B,2026-07-19T13:17:16.299168,1.00270593,.00020628,0.0675,307.5085,178.0814,34.5114,0,U,39617,999,4499,0,.132E-5,0
COSMOS 2492 (754),2014-012A,2026-07-19T05:56:48.304320,2.13103146,.00102792,65.2767,312.8464,317.3075,42.6335,0,U,39620,999,9592,0,-.77E-6,0
IRNSS-1B,2014-017A,2026-07-18T16:54:18.489888,1.00276854,.00221986,28.8702,239.8599,192.0035,173.4078,0,U,39635,999,4511,0,.121E-5,0
LUCH 5V (SDCM/PRN 141),2014-023A,2026-07-19T14:13:49.232352,1.00272243,.00021122,5.2113,69.4083,81.9232,94.2414,0,U,39727,999,4468,0,-.275E-5,0
GPS BIIF-6  (PRN 06),2014-026A,2026-07-18T20:55:13.320480,2.00558684,.00381611,56.4811,330.2843,325.6855,34.0716,0,U,39741,999,8917,0,-.103E-5,0
COSMOS 2500 (755),2014-032A,2026-07-18T22:44:56.641920,2.13105774,.00084407,65.2120,312.6009,191.3225,168.6798,0,U,40001,999,9413,0,-.75E-6,0
GPS BIIF-7  (PRN 09),2014-045A,2026-07-17T11:13:19.050240,2.00560402,.00345283,55.3728,87.2585,118.4118,241.9927,0,U,40105,999,8668,0,-.3E-6,0
GSAT0201 (GALILEO 5),2014-050A,2026-07-18T16:16:24.701952,1.85519739,.16789649,48.8408,272.1432,180.6285,179.1839,0,U,40128,999,7890,0,-.61E-6,0
GSAT0202 (GALILEO 6),2014-050B,2026-07-17T20:31:57.990720,1.85520332,.16801746,48.8588,271.2629,181.3093,178.2437,0,U,40129,999,8105,0,-.54E-6,0
IRNSS-1C,2014-061A,2026-07-18T17:02:30.009120,1.00271766,.00219928,6.5950,88.3313,5.8558,180.9989,0,U,40269,999,4300,0,-.172E-5,0
GPS BIIF-8  (PRN 03),2014-068A,2026-07-19T07:55:42.942432,2.00553506,.00674467,57.0098,29.7176,72.4070,288.3651,0,U,40294,999,8585,0,-.87E-6,0
COSMOS 2501 (702K),2014-075A,2026-07-18T06:31:19.719264,2.13101246,.00226804,63.6183,189.2960,212.6285,147.2256,0,U,40315,999,9051,0,.62E-6,0
GPS BIIF-9  (PRN 26),2015-013A,2026-07-19T11:18:56.675520,2.00573585,.0111066,52.9980,202.7580,41.5591,319.2884,0,U,40534,999,8247,0,.58E-6,0
GSAT0203 (GALILEO 7),2015-017A,2026-07-17T03:05:03.049728,1.70476213,.0002702,56.7761,340.7804,254.9804,104.9775,0,U,40544,999,6971,0,-.104E-5,0
GSAT0204 (GALILEO 8),2015-017B,2026-07-17T23:18:11.737152,1.70475755,.00028796,56.7834,340.7762,234.5302,125.4325,0,U,40545,999,3277,0,-.105E-5,0
